<?xml version="1.0" encoding="UTF-8" standalone="no" ?><gpx xmlns="http://www.topografix.com/GPX/1/1" xmlns:gpxx="http://www.garmin.com/xmlschemas/GpxExtensions/v3" xmlns:wptx1="http://www.garmin.com/xmlschemas/WaypointExtension/v1" xmlns:gpxtpx="http://www.garmin.com/xmlschemas/TrackPointExtension/v1" creator="GPSMAP 62" version="1.1" xmlns:xsi="http://www.w3.org/2001/XMLSchema-instance" xsi:schemaLocation="http://www.topografix.com/GPX/1/1 http://www.topografix.com/GPX/1/1/gpx.xsd http://www.garmin.com/xmlschemas/GpxExtensions/v3 http://www8.garmin.com/xmlschemas/GpxExtensionsv3.xsd http://www.garmin.com/xmlschemas/WaypointExtension/v1 http://www8.garmin.com/xmlschemas/WaypointExtensionv1.xsd http://www.garmin.com/xmlschemas/TrackPointExtension/v1 http://www.garmin.com/xmlschemas/TrackPointExtensionv1.xsd"><metadata><link href="http://www.garmin.com"><text>Garmin International</text></link><time>2025-10-02T08:29:56Z</time></metadata><wpt lat="50.805940" lon="11.738053"><ele>381.305115</ele><time>2025-10-02T08:29:56Z</time><name>BOR27</name><sym>Flag, Blue</sym></wpt><wpt lat="50.801192" lon="11.742037"><ele>385.337402</ele><time>2025-10-02T09:21:52Z</time><name>BOR29</name><sym>Flag, Blue</sym></wpt><wpt lat="50.801311" lon="11.742008"><ele>379.000549</ele><time>2025-10-02T09:31:50Z</time><name>BOR30</name><sym>Flag, Blue</sym></wpt><wpt lat="50.801432" lon="11.742087"><ele>382.549774</ele><time>2025-10-02T09:44:37Z</time><name>BOR30</name><sym>Flag, Blue</sym></wpt><wpt lat="50.765605" lon="11.698087"><ele>357.426575</ele><time>2025-10-02T11:15:56Z</time><name>BOR33</name><sym>Flag, Blue</sym></wpt><wpt lat="50.765664" lon="11.697958"><ele>351.697021</ele><time>2025-10-02T11:21:43Z</time><name>BOR34</name><sym>Flag, Blue</sym></wpt><wpt lat="50.765634" lon="11.697385"><ele>351.471039</ele><time>2025-10-02T11:52:28Z</time><name>BOR35</name><sym>Flag, Blue</sym></wpt><wpt lat="50.765593" lon="11.697134"><ele>358.362732</ele><time>2025-10-02T12:01:24Z</time><name>BOR36</name><sym>Flag, Blue</sym></wpt><wpt lat="50.765612" lon="11.696659"><ele>359.023346</ele><time>2025-10-02T12:30:51Z</time><name>BOR37</name><sym>Flag, Blue</sym></wpt></gpx>